ONEWEB-0045             
1 45151U 20008W   25027.69754915  .00000484  00000+0  13305-2 0  9997
2 45151  87.8904 121.7929 0001732 110.3822 249.7492 13.11418438244152
ONEWEB-0047             
1 45152U 20008X   25027.73885248  .00000625  00000+0  17536-2 0  9994
2 45152  87.8919 136.9865 0001578 106.6718 253.4583 13.10376372242000
ONEWEB-0048             
1 45153U 20008Y   25027.73384914  .00000445  00000+0  12380-2 0  9991
2 45153  87.8922 137.0078 0001598 104.7852 255.3452 13.10377810241613
ONEWEB-0049             
1 45154U 20008Z   25027.73551350  .00000518  00000+0  14462-2 0  9996
2 45154  87.8927 136.9954 0001550  87.4205 272.7100 13.10377378241833
ONEWEB-0051             
1 45155U 20008AA  25027.69583899  .00000399  00000+0  10892-2 0  9995
2 45155  87.8904 121.8361 0001833 106.1153 254.0177 13.11417135244836
ONEWEB-0052             
1 45156U 20008AB  25027.73218799  .00000326  00000+0  89855-3 0  9991
2 45156  87.8917 136.9505 0001367  87.1074 273.0210 13.10377988241746
ONEWEB-0053             
1 45157U 20008AC  25027.71391736 -.00000708  00000+0 -20635-2 0  9999
2 45157  87.8919 137.0118 0001420 119.4971 240.6298 13.10373786241711
ONEWEB-0054             
1 45158U 20008AD  25027.29065430  .00000666  00000+0  18706-2 0  9999
2 45158  87.8915 137.0733 0001737 105.1845 254.9475 13.10372505241773
